{
    "links": {
        "self": "http://www.neowsapp.com/rest/v1/neo/3693846?api_key=iIulBulltgU6a56xZRHN4H3l9WmuAYTsLGpBGhQ2"
    },
    "id": "3693846",
    "neo_reference_id": "3693846",
    "name": "(2014 UZ32)",
    "designation": "2014 UZ32",
    "nasa_jpl_url": "http://ssd.jpl.nasa.gov/sbdb.cgi?sstr=3693846",
    "absolute_magnitude_h": 23.3,
    "estimated_diameter": {
        "kilometers": {
            "estimated_diameter_min": 0.058150704,
            "estimated_diameter_max": 0.130028927
        },
        "meters": {
            "estimated_diameter_min": 58.1507039646,
            "estimated_diameter_max": 130.0289270043
        },
        "miles": {
            "estimated_diameter_min": 0.0361331611,
            "estimated_diameter_max": 0.0807962044
        },
        "feet": {
            "estimated_diameter_min": 190.7831555951,
            "estimated_diameter_max": 426.6041048727
        }
    },
    "is_potentially_hazardous_asteroid": false,
    "close_approach_data": [
        {
            "close_approach_date": "2014-10-26",
            "close_approach_date_full": "2014-Oct-26 03:31",
            "epoch_date_close_approach": 1414294260000,
            "relative_velocity": {
                "kilometers_per_second": "11.0137882884",
                "kilometers_per_hour": "39649.6378381993",
                "miles_per_hour": "24636.7430222967"
            },
            "miss_distance": {
                "astronomical": "0.1121379431",
                "lunar": "43.6216598659",
                "kilometers": "16775597.433941197",
                "miles": "10423872.8840426386"
            },
            "orbiting_body": "Earth"
        }
    ],
    "orbital_data": {
        "orbit_id": "10",
        "orbit_determination_date": "2017-04-06 08:38:03",
        "first_observation_date": "2014-10-22",
        "last_observation_date": "2014-11-02",
        "data_arc_in_days": 11,
        "observations_used": 44,
        "orbit_uncertainty": "8",
        "minimum_orbit_intersection": ".11213",
        "jupiter_tisserand_invariant": "4.486",
        "epoch_osculation": "2456955.5",
        "eccentricity": ".2896012862823151",
        "semi_major_axis": "1.477174708325327",
        "inclination": "19.12720051877959",
        "ascending_node_longitude": "25.77076607659292",
        "orbital_period": "655.7619623179761",
        "perihelion_distance": "1.049383012730609",
        "perihelion_argument": "43.72448652666152",
        "aphelion_distance": "1.904966403920046",
        "perihelion_time": "2456992.802836225731",
        "mean_anomaly": "339.5215004636827",
        "mean_motion": ".5489796918495825",
        "equinox": "J2000",
        "orbit_class": {
            "orbit_class_type": "AMO",
            "orbit_class_description": "Near-Earth asteroid orbits similar to that of 1221 Amor",
            "orbit_class_range": "1.017 AU < q (perihelion) < 1.3 AU"
        }
    },
    "is_sentry_object": false
}